NORAD_CAT_ID,OBJECT_NAME,OBJECT_TYPE,EPOCH,MEAN_MOTION,ECCENTRICITY,INCLINATION,RA_OF_ASC_NODE,ARG_OF_PERICENTER,MEAN_ANOMALY,BSTAR,MEAN_MOTION_DOT,MEAN_MOTION_DDOT,TLE_LINE0,TLE_LINE1,TLE_LINE2,SEMIMAJOR_AXIS,PERIOD,APOGEE,PERIGEE,DECAYED
55656.0,STARLINK-5326,PAYLOAD,2023-03-29 07:01:23,15.69936042,0.0003546,70.0028,38.8136,263.138,96.9412,2.4811e-05,2.773e-05,0.0,0 STARLINK-5326,1 55656U 23021AE  23088.29263735  .00002773  00000-0  24811-4 0  9992,2 55656  70.0028  38.8136 0003546 263.1380  96.9412 15.69936042  7054,6737.217,91.723,361.471,356.693,0.0
55656.0,STARLINK-5326,PAYLOAD,2023-03-30 05:57:40,15.69932032,0.0003192,70.001,36.1247,261.7536,98.3298,1.416e-05,1.491e-05,0.0,0 STARLINK-5326,1 55656U 23021AE  23089.24839086  .00001491  00000-0  14160-4 0  9998,2 55656  70.0010  36.1247 0003192 261.7536  98.3298 15.69932032  6897,6737.228,91.724,361.244,356.943,0.0
55656.0,STARLINK-5326,PAYLOAD,2023-03-30 22:46:57,15.69925104,0.0003078,70.0012,34.1532,266.6007,93.4837,3.0614e-06,1.56e-06,0.0,0 STARLINK-5326,1 55656U 23021AE  23089.94927911  .00000156  00000-0  30614-5 0  9990,2 55656  70.0012  34.1532 0003078 266.6007  93.4837 15.69925104  7005,6737.248,91.724,361.187,357.04,0.0
55656.0,STARLINK-5326,PAYLOAD,2023-03-31 06:25:44,15.69901301,0.0002962,70.0018,33.2585,267.0111,93.0745,-2.9835e-05,-3.794e-05,0.0,0 STARLINK-5326,1 55656U 23021AE  23090.26787421 -.00003794  00000-0 -29835-4 0  9992,2 55656  70.0018  33.2585 0002962 267.0111  93.0745 15.69901301  7053,6737.316,91.726,361.177,357.186,0.0
55656.0,STARLINK-5326,PAYLOAD,2023-03-31 20:11:29,15.69918755,0.0004017,70.0002,31.6432,263.7164,96.3575,-7.0317e-06,-1.058e-05,0.0,0 STARLINK-5326,1 55656U 23021AE  23090.84131461 -.00001058  00000-0 -70317-5 0  9996,2 55656  70.0002  31.6432 0004017 263.7164  96.3575 15.69918755  7141,6737.266,91.724,361.838,356.425,0.0
55656.0,STARLINK-5326,PAYLOAD,2023-04-01 05:22:00,15.69927723,0.0002623,70.0011,30.5688,268.3659,91.7236,1.4852e-05,1.574e-05,0.0,0 STARLINK-5326,1 55656U 23021AE  23091.22361250  .00001574  00000-0  14852-4 0  9992,2 55656  70.0011  30.5688 0002623 268.3659  91.7236 15.69927723  7208,6737.241,91.724,360.873,357.339,0.0
55656.0,STARLINK-5326,PAYLOAD,2023-04-02 05:50:02,15.69926359,0.0002069,70.0032,27.7078,284.4155,75.6811,1.9376e-05,2.118e-05,0.0,0 STARLINK-5326,1 55656U 23021AE  23092.24308727  .00002118  00000-0  19376-4 0  9996,2 55656  70.0032  27.7078 0002069 284.4155  75.6811 15.69926359  7367,6737.245,91.724,360.504,357.716,0.0
55656.0,STARLINK-5326,PAYLOAD,2023-04-02 21:07:33,15.69928154,0.0002545,70.0031,25.9159,245.7977,114.2953,1.8213e-05,1.978e-05,0.0,0 STARLINK-5326,1 55656U 23021AE  23092.88024982  .00001978  00000-0  18213-4 0  9996,2 55656  70.0031  25.9159 0002545 245.7977 114.2953 15.69928154  7774,6737.24,91.724,360.819,357.39,0.0
55656.0,STARLINK-5326,PAYLOAD,2023-04-03 04:46:19,15.699285,0.0003352,70.001,25.017,259.8128,100.269,2.1033e-05,2.317e-05,0.0,0 STARLINK-5326,1 55656U 23021AE  23093.19883239  .00002317  00000-0  21033-4 0  9991,2 55656  70.0010  25.0170 0003352 259.8128 100.2690 15.69928500  7820,6737.239,91.724,361.362,356.845,0.0
55656.0,STARLINK-5326,PAYLOAD,2023-04-03 21:35:35,15.69935123,0.0003473,70.0004,23.0461,257.3821,102.6986,2.6077e-05,2.925e-05,0.0,0 STARLINK-5326,1 55656U 23021AE  23093.89971132  .00002925  00000-0  26077-4 0  9996,2 55656  70.0004  23.0461 0003473 257.3821 102.6986 15.69935123  7936,6737.22,91.724,361.424,356.745,0.0
55656.0,STARLINK-5326,PAYLOAD,2023-04-04 05:14:21,15.69909571,0.0002863,70.0007,22.1528,253.8625,106.2255,-3.3706e-05,-4.26e-05,0.0,0 STARLINK-5326,1 55656U 23021AE  23094.21830704 -.00004260  00000-0 -33706-4 0  9995,2 55656  70.0007  22.1528 0002863 253.8625 106.2255 15.69909571  7676,6737.293,91.725,361.087,357.229,0.0
55656.0,STARLINK-5326,PAYLOAD,2023-04-04 06:46:06,15.69914575,0.0003048,70.0004,21.9711,263.7638,96.321,-1.8298e-05,-2.411e-05,0.0,0 STARLINK-5326,1 55656U 23021AE  23094.28202262 -.00002411  00000-0 -18298-4 0  9999,2 55656  70.0004  21.9711 0003048 263.7638  96.3210 15.69914575  7999,6737.278,91.725,361.197,357.09,0.0
55656.0,STARLINK-5326,PAYLOAD,2023-04-04 20:31:52,15.69922269,0.0003847,70.0008,20.3597,262.0217,98.0542,2.0895e-06,3.8e-07,0.0,0 STARLINK-5326,1 55656U 23021AE  23094.85546870  .00000038  00000-0  20895-5 0  9996,2 55656  70.0008  20.3597 0003847 262.0217  98.0542 15.69922269  7772,6737.256,91.724,361.713,356.53,0.0
55656.0,STARLINK-5326,PAYLOAD,2023-04-04 22:03:37,15.6992569,0.000366,70.0012,20.1813,264.0153,96.0626,8.2118e-06,7.75e-06,0.0,0 STARLINK-5326,1 55656U 23021AE  23094.91918437  .00000775  00000-0  82118-5 0  9999,2 55656  70.0012  20.1813 0003660 264.0153  96.0626 15.69925690  8098,6737.247,91.724,361.577,356.646,0.0
55656.0,STARLINK-5326,PAYLOAD,2023-04-05 04:10:37,15.69930336,0.0003169,70.0013,19.4663,268.4143,91.669,2.2063e-05,2.442e-05,0.0,0 STARLINK-5326,1 55656U 23021AE  23095.17404817  .00002442  00000-0  22063-4 0  9995,2 55656  70.0013  19.4663 0003169 268.4143  91.6690 15.69930336  7829,6737.233,91.724,361.233,356.963,0.0
55656.0,STARLINK-5326,PAYLOAD,2023-04-05 20:59:54,15.6992075,0.0003212,70.0018,17.4969,233.8793,126.2106,1.6318e-05,1.75e-05,0.0,0 STARLINK-5326,1 55656U 23021AE  23095.87493760  .00001750  00000-0  16318-4 0  9994,2 55656  70.0018  17.4969 0003212 233.8793 126.2106 15.69920750  8240,6737.261,91.724,361.29,356.962,0.0
55656.0,STARLINK-5326,PAYLOAD,2023-04-05 22:31:39,15.69919374,0.0003129,70.0021,17.3169,237.3698,122.7196,9.7712e-06,9.62e-06,0.0,0 STARLINK-5326,1 55656U 23021AE  23095.93865455  .00000962  00000-0  97712-5 0  9997,2 55656  70.0021  17.3169 0003129 237.3698 122.7196 15.69919374  7941,6737.265,91.724,361.238,357.022,0.0
55656.0,STARLINK-5326,PAYLOAD,2023-04-06 06:10:24,15.69942168,0.0003415,70.0022,16.4204,257.4157,102.6657,6.5978e-05,7.734e-05,0.0,0 STARLINK-5326,1 55656U 23021AE  23096.25723044  .00007734  00000-0  65978-4 0  9992,2 55656  70.0022  16.4204 0003415 257.4157 102.6657 15.69942168  7994,6737.199,91.723,361.365,356.764,0.0
55656.0,STARLINK-5326,PAYLOAD,2023-04-07 03:34:56,15.69928634,0.000334,70.0013,13.9119,255.8951,104.1873,8.4785e-06,8.07e-06,0.0,0 STARLINK-5326,1 55656U 23021AE  23097.14926847  .00000807  00000-0  84785-5 0  9999,2 55656  70.0013  13.9119 0003340 255.8951 104.1873 15.69928634  8138,6737.238,91.724,361.353,356.853,0.0
55656.0,STARLINK-5326,PAYLOAD,2023-04-08 04:02:59,15.69904087,0.0002676,70.0019,11.0467,254.5247,105.5654,-1.6463e-05,-2.189e-05,0.0,0 STARLINK-5326,1 55656U 23021AE  23098.16874921 -.00002189  00000-0 -16463-4 0  9991,2 55656  70.0019  11.0467 0002676 254.5247 105.5654 15.69904087  8299,6737.308,91.725,360.976,357.371,0.0
55656.0,STARLINK-5326,PAYLOAD,2023-04-08 05:34:44,15.69908249,0.0002909,70.0016,10.866,259.4184,100.6684,-7.2194e-06,-1.08e-05,0.0,0 STARLINK-5326,1 55656U 23021AE  23098.23246384 -.00001080  00000-0 -72194-5 0  9998,2 55656  70.0016  10.8660 0002909 259.4184 100.6684 15.69908249  8610,6737.296,91.725,361.121,357.202,0.0
55656.0,STARLINK-5326,PAYLOAD,2023-04-08 17:48:45,15.69922259,0.0003738,70.0006,9.4338,264.157,95.9199,6.5425e-06,5.74e-06,0.0,0 STARLINK-5326,1 55656U 23021AE  23098.74219032  .00000574  00000-0  65425-5 0  9998,2 55656  70.0006   9.4338 0003738 264.1570  95.9199 15.69922259  8386,6737.256,91.724,361.64,356.603,0.0
55656.0,STARLINK-5326,PAYLOAD,2023-04-09 04:31:01,15.69919334,0.0002924,70.0018,8.1811,257.2842,102.8027,3.594e-05,4.11e-05,0.0,0 STARLINK-5326,1 55656U 23021AE  23099.18821046  .00004110  00000-0  35940-4 0  9999,2 55656  70.0018   8.1811 0002924 257.2842 102.8027 15.69919334  8762,6737.265,91.724,361.1,357.16,0.0
55656.0,STARLINK-5326,PAYLOAD,2023-04-09 18:16:46,15.69932971,0.0002857,70.0012,6.5698,259.0057,101.0817,-6.4386e-06,-9.87e-06,0.0,0 STARLINK-5326,1 55656U 23021AE  23099.76165340 -.00000987  00000-0 -64386-5 0  9998,2 55656  70.0012   6.5698 0002857 259.0057 101.0817 15.69932971  8854,6737.226,91.724,361.016,357.166,0.0
55656.0,STARLINK-5326,PAYLOAD,2023-04-10 00:23:47,15.69928523,0.0003507,70.0011,5.8522,258.7084,101.3717,2.29e-05,2.542e-05,0.0,0 STARLINK-5326,1 55656U 23021AE  23100.01652138  .00002542  00000-0  22900-4 0  9997,2 55656  70.0011   5.8522 0003507 258.7084 101.3717 15.69928523  8580,6737.238,91.724,361.466,356.741,0.0
55656.0,STARLINK-5326,PAYLOAD,2023-04-10 04:59:02,15.69941446,0.000302,70.0027,5.3148,256.686,103.3999,3.391e-05,3.869e-05,0.0,0 STARLINK-5326,1 55656U 23021AE  23100.20766533  .00003869  00000-0  33910-4 0  9999,2 55656  70.0027   5.3148 0003020 256.6860 103.3999 15.69941446  8612,6737.202,91.723,361.101,357.032,0.0
55656.0,STARLINK-5326,PAYLOAD,2023-04-11 02:23:34,15.69923598,0.0003574,70.0011,2.8078,252.8519,107.2285,7.4869e-06,6.88e-06,0.0,0 STARLINK-5326,1 55656U 23021AE  23101.09970623  .00000688  00000-0  74869-5 0  9999,2 55656  70.0011   2.8078 0003574 252.8519 107.2285 15.69923598  9061,6737.253,91.724,361.525,356.71,0.0
55656.0,STARLINK-5326,PAYLOAD,2023-04-11 20:44:36,15.69924708,0.0003784,70.0008,0.6583,254.3667,105.7111,8.5158e-06,8.11e-06,0.0,0 STARLINK-5326,1 55656U 23021AE  23101.86430701  .00000811  00000-0  85158-5 0  9993,2 55656  70.0008   0.6583 0003784 254.3667 105.7111 15.69924708  9186,6737.249,91.724,361.664,356.565,0.0
55656.0,STARLINK-5326,PAYLOAD,2023-04-12 02:51:36,15.69921879,0.0003042,69.9989,359.9366,271.1827,88.902,-6.2826e-05,-7.759e-05,0.0,0 STARLINK-5326,1 55656U 23021AE  23102.11917325 -.00007759  00000-0 -62826-4 0  9990,2 55656  69.9989 359.9366 0003042 271.1827  88.9020 15.69921879  8919,6737.258,91.724,361.172,357.073,0.0
55656.0,STARLINK-5326,PAYLOAD,2023-04-13 03:19:39,15.69926011,0.0002741,70.0021,357.0721,281.6531,78.4357,2.0292e-05,2.228e-05,0.0,0 STARLINK-5326,1 55656U 23021AE  23103.13864619  .00002228  00000-0  20292-4 0  9995,2 55656  70.0021 357.0721 0002741 281.6531  78.4357 15.69926011  9388,6737.246,91.724,360.957,357.264,0.0
